STARLINK-6155           
1 57076U 23088AE  24210.62468360  .00001396  00000+0  11838-3 0  9992
2 57076  43.0066  55.7510 0001748 270.9785  89.0857 15.02535033 61008
STARLINK-6194           
1 57077U 23088AF  24210.61468371 -.00000775  00000+0 -42315-4 0  9991
2 57077  43.0048  55.6721 0001216 274.2633  85.8071 15.02544549 61005
STARLINK-6246           
1 57078U 23088AG  24210.62359228  .00007345  00000+0  55898-3 0  9990
2 57078  43.0040  55.7361 0000999 254.4431 105.6301 15.02486331 61003
STARLINK-6245           
1 57079U 23088AH  24209.93879773 -.00003796  00000+0 -26617-3 0  9990
2 57079  43.0033  59.2024 0001580 287.5662  72.5008 15.02522278 60894
STARLINK-6243           
1 57080U 23088AJ  24210.61801373 -.00001507  00000+0 -96518-4 0  9996
2 57080  43.0043  55.6992 0001232 267.5436  92.5265 15.02539584 60998
STARLINK-6184           
1 57081U 23088AK  24209.93547904 -.00000012  00000+0  14179-4 0  9999
2 57081  43.0019  59.1739 0001237 285.5915  74.4791 15.02526390 60890
STARLINK-6248           
1 57082U 23088AL  24209.94213009  .00000454  00000+0  48715-4 0  9999
2 57082  43.0066  59.2253 0002105 256.0039 104.0569 15.02533718 60895
STARLINK-6253           
1 57083U 23088AM  24210.59248507 -.00001319  00000+0 -82564-4 0  9997
2 57083  43.0059  55.5036 0001137 274.5032  85.5681 15.02541719 60997
STARLINK-6240           
1 57084U 23088AN  24210.60136071  .00000840  00000+0  77236-4 0  9998
2 57084  43.0042  55.5744 0001058 271.8431  88.2290 15.02543182 60993
STARLINK-6232           
1 57085U 23088AP  24210.72100475  .00000021  00000+0  16654-4 0  9999
2 57085  43.0029  54.7469 0000929 265.7664  94.3072 15.02530250 61012
STARLINK-6247           
1 57086U 23088AQ  24210.59803608 -.00001605  00000+0 -10374-3 0  9996
2 57086  43.0038  55.5474 0000980 288.1363  71.9373 15.02536947 60990
STARLINK-6251           
1 57087U 23088AR  24210.71766833  .00000701  00000+0  66953-4 0  9998
2 57087  43.0032  54.7223 0001214 273.8840  86.1864 15.02539203 61015
STARLINK-6257           
1 57088U 23088AS  24209.73049223 -.00000728  00000+0 -38870-4 0  9994
2 57088  43.0006  60.2161 0000711 295.6864  64.3905 15.02531680 60866
STARLINK-6259           
1 57089U 23088AT  24210.57472280  .00000241  00000+0  32905-4 0  9993
2 57089  43.0031  55.3684 0001267 272.6700  87.3998 15.02535139 60995
STARLINK-6254           
1 57090U 23088AU  24210.58360785 -.00000971  00000+0 -56828-4 0  9994
2 57090  43.0036  55.4368 0001283 281.0090  79.0609 15.02528178 60998
STARLINK-6262           
1 57091U 23088AV  24210.64452874 -.00006098  00000+0 -43642-3 0  9998
2 57091  43.0036  55.0319 0001349 265.3130  94.7558 15.02565360 61008
STARLINK-6225           
1 57092U 23088AW  24209.98197345  .00000110  00000+0  23243-4 0  9996
2 57092  43.0033  58.6614 0001410 266.6468  93.4213 15.02535228 60902
STARLINK-6229           
1 57093U 23088AX  24209.64070535  .00001901  00000+0  15577-3 0  9990
2 57093  43.0020  60.4012 0001350 281.8756  78.1935 15.02534204 60863
STARLINK-6235           
1 57094U 23088AY  24209.63959184  .00001257  00000+0  10807-3 0  9991
2 57094  43.0045  60.3940 0001257 270.8811  89.1888 15.02538298 60851
STARLINK-6132           
1 57101U 23090A   24209.46409853  .00000172  00000+0  27781-4 0  9992
2 57101  43.0031 242.1639 0001211 271.9187  88.1517 15.02529980 61620
STARLINK-6111           
1 57102U 23090B   24210.38926533 -.00001035  00000+0 -61557-4 0  9995
2 57102  43.0028 237.0632 0001477 264.1054  95.9620 15.02517973 60623
STARLINK-6123           
1 57103U 23090C   24209.98643556  .00000465  00000+0  49528-4 0  9999
2 57103  43.0031 213.1650 0001207 260.6990  99.3715 15.02535489 60865
STARLINK-6130           
1 57104U 23090D   24210.52441572 -.00001022  00000+0 -60561-4 0  9998
2 57104  42.9998 236.3563 0001773  34.3392 325.7565 15.02528115 60649
STARLINK-6097           
1 57105U 23090E   24210.52107972 -.00000536  00000+0 -24655-4 0  9995
2 57105  43.0015 236.3286 0001012 274.6605  85.4121 15.02531995 60644
STARLINK-6118           
1 57106U 23090F   24210.38257259 -.00000170  00000+0  24944-5 0  9999
2 57106  43.0013 237.0094 0001005 269.3786  90.6941 15.02533083 60627
STARLINK-6131           
1 57107U 23090G   24210.16982847  .00004260  00000+0  33029-3 0  9999
2 57107  42.9996 237.9930 0000886 263.7807  96.2934 15.02527607 60597
STARLINK-6099           
1 57108U 23090H   24210.51775298 -.00001055  00000+0 -63048-4 0  9995
2 57108  43.0020 236.3065 0000903 283.4593  76.6149 15.02529236 60647
STARLINK-6139           
1 57109U 23090J   24210.50776520 -.00000270  00000+0 -49274-5 0  9998
2 57109  42.9996 236.2330 0001343 272.8952  87.1737 15.02535115 60645
STARLINK-6134           
1 57110U 23090K   24210.51886091 -.00000131  00000+0  53843-5 0  9998
2 57110  43.0023 236.3132 0001355 269.5328  90.5359 15.02532066 60644
STARLINK-6140           
1 57111U 23090L   24209.43190956  .00000365  00000+0  42110-4 0  9998
2 57111  43.0027 241.9185 0001270 261.3678  98.7020 15.02530575 61620
STARLINK-6141           
1 57112U 23090M   24210.44571374 -.00005509  00000+0 -39274-3 0  9992
2 57112  43.0022 236.6245 0001539 271.3545  88.7121 15.02563951 60631
STARLINK-6142           
1 57113U 23090N   24210.43463748  .00001296  00000+0  11100-3 0  9992
2 57113  43.0014 236.5431 0001251 256.4306 103.6397 15.02532495 60630
STARLINK-6125           
1 57114U 23090P   24210.43129624 -.00001430  00000+0 -90806-4 0  9998
2 57114  43.0012 236.5168 0001233 279.5159  80.5544 15.02530875 60635
STARLINK-6085           
1 57115U 23090Q   24210.35926759 -.00000122  00000+0  60500-5 0  9999
2 57115  42.9979 236.8403 0001025 271.5432  88.5293 15.02536788 60623
STARLINK-6129           
1 57116U 23090R   24210.43795728  .00002395  00000+0  19237-3 0  9991
2 57116  43.0020 236.5680 0001067 266.3109  93.7611 15.02522092 60632
STARLINK-6148           
1 57117U 23090S   24210.35592817  .00001256  00000+0  10799-3 0  9996
2 57117  43.0014 236.8086 0000960 272.2710  87.8022 15.02540240 60628
STARLINK-6151           
1 57118U 23090T   24209.43079805 -.00000174  00000+0  21562-5 0  9992
2 57118  43.0037 241.9102 0001236 265.5621  94.5080 15.02533223 61626
STARLINK-6150           
1 57119U 23090U   24210.48445180  .00000067  00000+0  20017-4 0  9996
2 57119  43.0020 236.0529 0000771 316.6843  43.3938 15.02542893 60642
STARLINK-6147           
1 57120U 23090V   24209.49395044 -.00000859  00000+0 -48505-4 0  9993
2 57120  43.0041 241.5240 0001111 285.9899  74.0821 15.02531646 61632
STARLINK-6152           
1 57121U 23090W   24210.54204841  .00003938  00000+0  30635-3 0  9999
2 57121  43.0028 235.6244 0001374 280.1680  79.9007 15.02541838 60657
STARLINK-6149           
1 57122U 23090X   24210.41464243 -.00000852  00000+0 -48005-4 0  9995
2 57122  43.0015 236.3896 0001141 280.6692  79.4022 15.02535228 60631
STARLINK-6154           
1 57123U 23090Y   24210.53872051  .00000639  00000+0  62359-4 0  9998
2 57123  43.0012 235.5998 0000818 269.7301  90.3448 15.02537479 60654
STARLINK-6146           
1 57124U 23090Z   24210.54537078 -.00000641  00000+0 -32342-4 0  9991
2 57124  43.0067 235.6497 0002533 271.4292  88.6260 15.02531902 60652
STARLINK-6100           
1 57125U 23090AA  24210.39171319 -.00001010  00000+0 -59731-4 0  9999
2 57125  43.0013 224.0600 0001050 290.4538  69.6192 15.02529630 60770
STARLINK-6167           
1 57126U 23090AB  24210.41131355 -.00000538  00000+0 -24728-4 0  9991
2 57126  43.0025 236.3637 0001174 273.1095  86.9613 15.02532573 60638
STARLINK-6165           
1 57127U 23090AC  24210.46780335  .00001050  00000+0  92764-4 0  9998
2 57127  43.0018 235.9248 0001100 265.6663  94.4054 15.02539345 60648
STARLINK-6163           
1 57128U 23090AD  24210.40799007 -.00001151  00000+0 -70146-4 0  9993
2 57128  43.0007 236.3366 0001253 270.2288  89.8411 15.02528996 60631
STARLINK-6170           
1 57129U 23090AE  24210.40614362 -.00001145  00000+0 -69691-4 0  9990
2 57129  43.0018 224.1684 0001299 270.7941  89.2752 15.02527888 60779
STARLINK-6172           
1 57130U 23090AF  24210.46894297 -.00002190  00000+0 -14724-3 0  9992
2 57130  42.9923 235.9398 0000729 164.7085 195.3779 15.02507307 60642
STARLINK-6162           
1 57131U 23090AG  24210.40169807  .00001375  00000+0  11682-3 0  9991
2 57131  43.0008 224.1346 0001396 266.1057  93.9626 15.02536200 60771
STARLINK-6128           
1 57132U 23090AH  24210.52873108 -.00000838  00000+0 -46978-4 0  9993
2 57132  43.0038 235.5241 0001270 280.1485  79.9215 15.02532546 60651
STARLINK-6143           
1 57133U 23090AJ  24210.38835707  .00000212  00000+0  30760-4 0  9997
2 57133  43.0025 224.0329 0001708 266.4687  93.5960 15.02549104 60775
STARLINK-6133           
1 57134U 23090AK  24210.20337448 -.00000685  00000+0 -35649-4 0  9995
2 57134  43.0005 225.2266 0000887 276.8025  83.2716 15.02532460 60744
STARLINK-6127           
1 57135U 23090AL  24210.44486557  .00000127  00000+0  24494-4 0  9993
2 57135  43.0019 223.5964 0001153 274.6747  85.3963 15.02533991 60781
STARLINK-6112           
1 57136U 23090AM  24210.39947669  .00000329  00000+0  39398-4 0  9997
2 57136  43.0016 224.1147 0001014 267.1461  92.9265 15.02536124 60774
STARLINK-5347           
1 57137U 23090AN  24210.38614876 -.00005720  00000+0 -40836-3 0  9998
2 57137  43.0021 224.0157 0001415 261.3087  98.7595 15.02565439 60777
STARLINK-5336           
1 57138U 23090AP  24210.39836571 -.00000553  00000+0 -25895-4 0  9996
2 57138  43.0015 224.1057 0001035 264.9777  95.0947 15.02534302 60770
STARLINK-5355           
1 57139U 23090AQ  24210.44819503 -.00000084  00000+0  88804-5 0  9997
2 57139  43.0031 223.6173 0001103 281.1339  78.9379 15.02533056 60788
STARLINK-5354           
1 57140U 23090AR  24210.25001157  .00105991  00000+0  72488-3 0  9997
2 57140  42.9971 190.8673 0001402 185.3202 217.0365 15.73714291 61138
